CMS-02 (GSAT 24)        
1 52903U 22067A   24162.67880113 -.00000165  00000+0  00000+0 0  9996
2 52903   0.0344 260.4229 0008238 188.2506 138.2335  1.00272204  7222
GSAT-30                 
1 45026U 20005A   24162.67880145 -.00000165  00000+0  00000+0 0  9999
2 45026   0.0364  98.4216 0003461 345.4516 143.0194  1.00271449 16124
GSAT-31                 
1 44035U 19007B   24162.93858979  .00000126  00000+0  00000+0 0  9993
2 44035   0.0357 110.2511 0001039 189.6371 345.6303  1.00271969 19584
GSAT-8                  
1 37605U 11022A   24162.91371032  .00000085  00000+0  00000+0 0  9999
2 37605   0.2241  91.7621 0002911 198.5934 353.4131  1.00273130 45837